{"type":"FeatureCollection","features":[{"type":"Feature","properties":{"name":"University of Washington, Seattle","year_founded":1861,"type":"Public","student_population":52319,"county":"King County"},"geometry":{"type":"Point","coordinates":[-122.3035,47.6553]}},{"type":"Feature","properties":{"name":"University of Washington, Bothell","year_founded":1990,"type":"Public","student_population":6000,"county":"King County"},"geometry":{"type":"Point","coordinates":[-122.191,47.76]}},{"type":"Feature","properties":{"name":"University of Washington, Tacoma","year_founded":1990,"type":"Public","student_population":5000,"county":"Pierce County"},"geometry":{"type":"Point","coordinates":[-122.4376,47.2466]}},{"type":"Feature","properties":{"name":"Washington State University, Pullman","year_founded":1890,"type":"Public","student_population":27539,"county":"Whitman County"},"geometry":{"type":"Point","coordinates":[-117.1607,46.7319]}},{"type":"Feature","properties":{"name":"Washington State University, Spokane","year_founded":1989,"type":"Public","student_population":1600,"county":"Spokane County"},"geometry":{"type":"Point","coordinates":[-117.404,47.664]}},{"type":"Feature","properties":{"name":"Washington State University, Tri-Cities","year_founded":1989,"type":"Public","student_population":1700,"county":"Benton County"},"geometry":{"type":"Point","coordinates":[-119.268,46.3267]}},{"type":"Feature","properties":{"name":"Washington State University, Vancouver","year_founded":1989,"type":"Public","student_population":3000,"county":"Clark County"},"geometry":{"type":"Point","coordinates":[-122.632,45.732]},"id":6},{"type":"Feature","properties":{"name":"Western Washington University","year_founded":1893,"type":"Public","student_population":14747,"county":"Whatcom County"},"geometry":{"type":"Point","coordinates":[-122.4859,48.734]}},{"type":"Feature","properties":{"name":"Eastern Washington University","year_founded":1882,"type":"Public","student_population":10910,"county":"Spokane County"},"geometry":{"type":"Point","coordinates":[-117.5787,47.4919]}},{"type":"Feature","properties":{"name":"Central Washington University","year_founded":1891,"type":"Public","student_population":9257,"county":"Kittitas County"},"geometry":{"type":"Point","coordinates":[-120.5363,46.9995]},"id":9},{"type":"Feature","properties":{"name":"The Evergreen State College","year_founded":1967,"type":"Public","student_population":2800,"county":"Thurston County"},"geometry":{"type":"Point","coordinates":[-122.973,47.0736]}},{"type":"Feature","properties":{"name":"Gonzaga University","year_founded":1887,"type":"Private","student_population":7500,"county":"Spokane County"},"geometry":{"type":"Point","coordinates":[-117.4039,47.6675]}},{"type":"Feature","properties":{"name":"Seattle University","year_founded":1891,"type":"Private","student_population":7200,"county":"King County"},"geometry":{"type":"Point","coordinates":[-122.3116,47.609]}},{"type":"Feature","properties":{"name":"Seattle Pacific University","year_founded":1891,"type":"Private","student_population":3300,"county":"King County"},"geometry":{"type":"Point","coordinates":[-122.3616,47.65]}},{"type":"Feature","properties":{"name":"Whitman College","year_founded":1882,"type":"Private","student_population":1500,"county":"Walla Walla County"},"geometry":{"type":"Point","coordinates":[-118.3306,46.0713]}},{"type":"Feature","properties":{"name":"Whitworth University","year_founded":1890,"type":"Private","student_population":3000,"county":"Spokane County"},"geometry":{"type":"Point","coordinates":[-117.417,47.751]},"id":15},{"type":"Feature","properties":{"name":"Pacific Lutheran University","year_founded":1890,"type":"Private","student_population":3100,"county":"Pierce County"},"geometry":{"type":"Point","coordinates":[-122.445,47.145]}},{"type":"Feature","properties":{"name":"University of Puget Sound","year_founded":1888,"type":"Private","student_population":2600,"county":"Pierce County"},"geometry":{"type":"Point","coordinates":[-122.481,47.261]}},{"type":"Feature","properties":{"name":"Saint Martin's University","year_founded":1895,"type":"Private","student_population":1600,"county":"Thurston County"},"geometry":{"type":"Point","coordinates":[-122.905,46.973]}},{"type":"Feature","properties":{"name":"Walla Walla University","year_founded":1892,"type":"Private","student_population":1700,"county":"Walla Walla County"},"geometry":{"type":"Point","coordinates":[-118.389,46.046]}},{"type":"Feature","properties":{"name":"Heritage University","year_founded":1982,"type":"Private","student_population":1000,"county":"Yakima County"},"geometry":{"type":"Point","coordinates":[-120.389,46.377]},"id":20},{"type":"Feature","properties":{"name":"Bastyr University","year_founded":1978,"type":"Private","student_population":900,"county":"King County"},"geometry":{"type":"Point","coordinates":[-122.336,47.614]}},{"type":"Feature","properties":{"name":"City University of Seattle","year_founded":1973,"type":"Private","student_population":6500,"county":"King County"},"geometry":{"type":"Point","coordinates":[-122.336,47.614]}},{"type":"Feature","properties":{"name":"Cornish College of the Arts","year_founded":1914,"type":"Private","student_population":600,"county":"King County"},"geometry":{"type":"Point","coordinates":[-122.333,47.617]}}]}